{"type": "FeatureCollection", "features": [ {"type": "Feature", "properties": {"norad_id": 33939, "name": "COSMOS 2251 DEB", "group": "cosmos-2251-debris", "lat": -27.910945314245218, "lon": -85.90253396784455, "alt_km": 575.2765156587802, "timestamp": "2025-12-10T09:57:45.090974+00:00", "meta": {"OBJECT_NAME": "COSMOS 2251 DEB", "OBJECT_ID": "1993-036EU", "EPOCH": "2025-12-09T23:25:36.244416", "MEAN_MOTION": 14.99537679, "ECCENTRICITY": 0.0003112, "INCLINATION": 74.0073, "RA_OF_ASC_NODE": 86.2517, "ARG_OF_PERICENTER": 71.4511, "MEAN_ANOMALY": 288.7013, "EPHEMERIS_TYPE": 0, "CLASSIFICATION_TYPE": "U", "NORAD_CAT_ID": 33939, "ELEMENT_SET_NO": 999, "REV_AT_EPOCH": 88711, "BSTAR": 0.0049484, "MEAN_MOTION_DOT": 0.00061326, "MEAN_MOTION_DDOT": 0}, "tle": {"line1": "1 33939U 93036EU  25343.97611394  .00061326  00000+0  49484-2 0  9993", "line2": "2 33939  74.0073  86.2517 0003112  71.4511 288.7013 14.99537679887119"}}, "geometry": {"type": "Point", "coordinates": [-85.90253396784455, -27.910945314245218]}}, {"type": "Feature", "properties": {"norad_id": 33940, "name": "COSMOS 2251 DEB", "group": "cosmos-2251-debris", "lat": -36.12261679586224, "lon": 135.86780702231144, "alt_km": 703.8288447814548, "timestamp": "2025-12-10T09:57:45.090984+00:00", "meta": {"OBJECT_NAME": "COSMOS 2251 DEB", "OBJECT_ID": "1993-036EV", "EPOCH": "2025-12-10T04:05:15.178848", "MEAN_MOTION": 14.58750042, "ECCENTRICITY": 0.001145, "INCLINATION": 74.0399, "RA_OF_ASC_NODE": 148.3892, "ARG_OF_PERICENTER": 228.0856, "MEAN_ANOMALY": 249.0699, "EPHEMERIS_TYPE": 0, "CLASSIFICATION_TYPE": "U", "NORAD_CAT_ID": 33940, "ELEMENT_SET_NO": 999, "REV_AT_EPOCH": 88556, "BSTAR": 0.0015655, "MEAN_MOTION_DOT": 7.296e-05, "MEAN_MOTION_DDOT": 0}, "tle": {"line1": "1 33940U 93036EV  25344.17031457  .00007296  00000+0  15655-2 0  9993", "line2": "2 33940  74.0399 148.3892 0011450 228.0856 249.0699 14.58750042885567"}}, "geometry": {"type": "Point", "coordinates": [135.86780702231144, -36.12261679586224]}}, {"type": "Feature", "properties": {"norad_id": 33942, "name": "COSMOS 2251 DEB", "group": "cosmos-2251-debris", "lat": -25.861428301670003, "lon": -88.86575685155846, "alt_km": 757.9249344585241, "timestamp": "2025-12-10T09:57:45.090994+00:00", "meta": {"OBJECT_NAME": "COSMOS 2251 DEB", "OBJECT_ID": "1993-036EX", "EPOCH": "2025-12-10T03:41:30.054048", "MEAN_MOTION": 14.37982195, "ECCENTRICITY": 0.0020195, "INCLINATION": 74.0366, "RA_OF_ASC_NODE": 279.5909, "ARG_OF_PERICENTER": 3.3871, "MEAN_ANOMALY": 57.7933, "EPHEMERIS_TYPE": 0, "CLASSIFICATION_TYPE": "U", "NORAD_CAT_ID": 33942, "ELEMENT_SET_NO": 999, "REV_AT_EPOCH": 88097, "BSTAR": 0.00037738, "MEAN_MOTION_DOT": 1.117e-05, "MEAN_MOTION_DDOT": 0}, "tle": {"line1": "1 33942U 93036EX  25344.15382007  .00001117  00000+0  37738-3 0  9996", "line2": "2 33942  74.0366 279.5909 0020195   3.3871  57.7933 14.37982195880974"}}, "geometry": {"type": "Point", "coordinates": [-88.86575685155846, -25.861428301670003]}}, {"type": "Feature", "properties": {"norad_id": 33944, "name": "COSMOS 2251 DEB", "group": "cosmos-2251-debris", "lat": -32.20193627170546, "lon": 143.58622641040728, "alt_km": 848.2775678167518, "timestamp": "2025-12-10T09:57:45.091004+00:00", "meta": {"OBJECT_NAME": "COSMOS 2251 DEB", "OBJECT_ID": "1993-036EZ", "EPOCH": "2025-12-10T00:56:06.854208", "MEAN_MOTION": 14.37333519, "ECCENTRICITY": 0.0112079, "INCLINATION": 74.0401, "RA_OF_ASC_NODE": 313.895, "ARG_OF_PERICENTER": 54.2012, "MEAN_ANOMALY": 13.4202, "EPHEMERIS_TYPE": 0, "CLASSIFICATION_TYPE": "U", "NORAD_CAT_ID": 33944, "ELEMENT_SET_NO": 999, "REV_AT_EPOCH": 87989, "BSTAR": 0.00050924, "MEAN_MOTION_DOT": 1.607e-05, "MEAN_MOTION_DDOT": 0}, "tle": {"line1": "1 33944U 93036EZ  25344.03896822  .00001607  00000+0  50924-3 0  9996", "line2": "2 33944  74.0401 313.8950 0112079  54.2012  13.4202 14.37333519879896"}}, "geometry": {"type": "Point", "coordinates": [143.58622641040728, -32.20193627170546]}}, {"type": "Feature", "properties": {"norad_id": 33945, "name": "COSMOS 2251 DEB", "group": "cosmos-2251-debris", "lat": 27.519319281282826, "lon": -40.89265783912209, "alt_km": 759.485064464392, "timestamp": "2025-12-10T09:57:45.091014+00:00", "meta": {"OBJECT_NAME": "COSMOS 2251 DEB", "OBJECT_ID": "1993-036FA", "EPOCH": "2025-12-10T04:48:31.537728", "MEAN_MOTION": 14.34597519, "ECCENTRICITY": 0.0021796, "INCLINATION": 74.0296, "RA_OF_ASC_NODE": 310.9202, "ARG_OF_PERICENTER": 38.0387, "MEAN_ANOMALY": 322.2299, "EPHEMERIS_TYPE": 0, "CLASSIFICATION_TYPE": "U", "NORAD_CAT_ID": 33945, "ELEMENT_SET_NO": 999, "REV_AT_EPOCH": 87979, "BSTAR": 0.0002242, "MEAN_MOTION_DOT": 6.09e-06, "MEAN_MOTION_DDOT": 0}, "tle": {"line1": "1 33945U 93036FA  25344.20036502  .00000609  00000+0  22420-3 0  9998", "line2": "2 33945  74.0296 310.9202 0021796  38.0387 322.2299 14.34597519879792"}}, "geometry": {"type": "Point", "coordinates": [-40.89265783912209, 27.519319281282826]}}, {"type": "Feature", "properties": {"norad_id": 33948, "name": "COSMOS 2251 DEB", "group": "cosmos-2251-debris", "lat": -46.694002983064514, "lon": 147.0801686186865, "alt_km": 794.2657845457197, "timestamp": "2025-12-10T09:57:45.091024+00:00", "meta": {"OBJECT_NAME": "COSMOS 2251 DEB", "OBJECT_ID": "1993-036FD", "EPOCH": "2025-12-10T00:32:11.969664", "MEAN_MOTION": 14.35623877, "ECCENTRICITY": 0.0022596, "INCLINATION": 74.0354, "RA_OF_ASC_NODE": 310.1199, "ARG_OF_PERICENTER": 26.7038, "MEAN_ANOMALY": 333.5273, "EPHEMERIS_TYPE": 0, "CLASSIFICATION_TYPE": "U", "NORAD_CAT_ID": 33948, "ELEMENT_SET_NO": 999, "REV_AT_EPOCH": 87984, "BSTAR": 0.00031716, "MEAN_MOTION_DOT": 8.91e-06, "MEAN_MOTION_DDOT": 0}, "tle": {"line1": "1 33948U 93036FD  25344.02236076  .00000891  00000+0  31716-3 0  9990", "line2": "2 33948  74.0354 310.1199 0022596  26.7038 333.5273 14.35623877879844"}}, "geometry": {"type": "Point", "coordinates": [147.0801686186865, -46.694002983064514]}}, {"type": "Feature", "properties": {"norad_id": 33971, "name": "COSMOS 2251 DEB", "group": "cosmos-2251-debris", "lat": -72.43051915393093, "lon": 142.81109303810402, "alt_km": 767.7995348051563, "timestamp": "2025-12-10T09:57:45.091034+00:00", "meta": {"OBJECT_NAME": "COSMOS 2251 DEB", "OBJECT_ID": "1993-036FE", "EPOCH": "2025-12-10T04:17:41.423424", "MEAN_MOTION": 14.39717779, "ECCENTRICITY": 0.001843, "INCLINATION": 74.0252, "RA_OF_ASC_NODE": 258.4654, "ARG_OF_PERICENTER": 359.3893, "MEAN_ANOMALY": 119.928, "EPHEMERIS_TYPE": 0, "CLASSIFICATION_TYPE": "U", "NORAD_CAT_ID": 33971, "ELEMENT_SET_NO": 999, "REV_AT_EPOCH": 88102, "BSTAR": 0.00045281, "MEAN_MOTION_DOT": 1.394e-05, "MEAN_MOTION_DDOT": 0}, "tle": {"line1": "1 33971U 93036FE  25344.17895166  .00001394  00000+0  45281-3 0  9994", "line2": "2 33971  74.0252 258.4654 0018430 359.3893 119.9280 14.39717779881029"}}, "geometry": {"type": "Point", "coordinates": [142.81109303810402, -72.43051915393093]}}, {"type": "Feature", "properties": {"norad_id": 33972, "name": "COSMOS 2251 DEB", "group": "cosmos-2251-debris", "lat": -46.68040856915413, "lon": 32.66675722182531, "alt_km": 838.1885108871447, "timestamp": "2025-12-10T09:57:45.091045+00:00", "meta": {"OBJECT_NAME": "COSMOS 2251 DEB", "OBJECT_ID": "1993-036FF", "EPOCH": "2025-12-10T01:14:22.961760", "MEAN_MOTION": 14.36191385, "ECCENTRICITY": 0.0123149, "INCLINATION": 73.9944, "RA_OF_ASC_NODE": 195.6145, "ARG_OF_PERICENTER": 3.92, "MEAN_ANOMALY": 147.8201, "EPHEMERIS_TYPE": 0, "CLASSIFICATION_TYPE": "U", "NORAD_CAT_ID": 33972, "ELEMENT_SET_NO": 999, "REV_AT_EPOCH": 87035, "BSTAR": 0.0013679, "MEAN_MOTION_DOT": 4.325e-05, "MEAN_MOTION_DDOT": 0}, "tle": {"line1": "1 33972U 93036FF  25344.05165465  .00004325  00000+0  13679-2 0  9996", "line2": "2 33972  73.9944 195.6145 0123149   3.9200 147.8201 14.36191385870354"}}, "geometry": {"type": "Point", "coordinates": [32.66675722182531, -46.68040856915413]}}, {"type": "Feature", "properties": {"norad_id": 33973, "name": "COSMOS 2251 DEB", "group": "cosmos-2251-debris", "lat": -72.91912541074622, "lon": -3.8095830831236714, "alt_km": 716.5015658720868, "timestamp": "2025-12-10T09:57:45.091054+00:00", "meta": {"OBJECT_NAME": "COSMOS 2251 DEB", "OBJECT_ID": "1993-036FG", "EPOCH": "2025-12-09T14:32:15.091008", "MEAN_MOTION": 14.4538571, "ECCENTRICITY": 0.004727, "INCLINATION": 74.0079, "RA_OF_ASC_NODE": 108.744, "ARG_OF_PERICENTER": 287.7375, "MEAN_ANOMALY": 86.6082, "EPHEMERIS_TYPE": 0, "CLASSIFICATION_TYPE": "U", "NORAD_CAT_ID": 33973, "ELEMENT_SET_NO": 999, "REV_AT_EPOCH": 88555, "BSTAR": 0.00027525, "MEAN_MOTION_DOT": 9.53e-06, "MEAN_MOTION_DDOT": 0}, "tle": {"line1": "1 33973U 93036FG  25343.60573022  .00000953  00000+0  27525-3 0  9998", "line2": "2 33973  74.0079 108.7440 0047270 287.7375  86.6082 14.45385710885556"}}, "geometry": {"type": "Point", "coordinates": [-3.8095830831236714, -72.91912541074622]}}, {"type": "Feature", "properties": {"norad_id": 33975, "name": "COSMOS 2251 DEB", "group": "cosmos-2251-debris", "lat": -38.51696589010691, "lon": -78.08400060340882, "alt_km": 758.9369056850628, "timestamp": "2025-12-10T09:57:45.091064+00:00", "meta": {"OBJECT_NAME": "COSMOS 2251 DEB", "OBJECT_ID": "1993-036FJ", "EPOCH": "2025-12-09T17:28:39.314784", "MEAN_MOTION": 14.00515385, "ECCENTRICITY": 0.0191374, "INCLINATION": 73.8024, "RA_OF_ASC_NODE": 89.7466, "ARG_OF_PERICENTER": 223.0996, "MEAN_ANOMALY": 135.502, "EPHEMERIS_TYPE": 0, "CLASSIFICATION_TYPE": "U", "NORAD_CAT_ID": 33975, "ELEMENT_SET_NO": 999, "REV_AT_EPOCH": 85787, "BSTAR": 0.0011881, "MEAN_MOTION_DOT": 2.041e-05, "MEAN_MOTION_DDOT": 0}, "tle": {"line1": "1 33975U 93036FJ  25343.72823281  .00002041  00000+0  11881-2 0  9995", "line2": "2 33975  73.8024  89.7466 0191374 223.0996 135.5020 14.00515385857872"}}, "geometry": {"type": "Point", "coordinates": [-78.08400060340882, -38.51696589010691]}}]}